NORAD_CAT_ID,OBJECT_NAME,OBJECT_TYPE,EPOCH,MEAN_MOTION,ECCENTRICITY,INCLINATION,RA_OF_ASC_NODE,ARG_OF_PERICENTER,MEAN_ANOMALY,BSTAR,MEAN_MOTION_DOT,MEAN_MOTION_DDOT,TLE_LINE0,TLE_LINE1,TLE_LINE2,SEMIMAJOR_AXIS,PERIOD,APOGEE,PERIGEE,DECAYED
53986.0,STARLINK-5119,PAYLOAD,2023-11-09 13:05:59,15.08859881,0.000122,53.2175,64.7345,53.8951,306.2154,0.0013281,0.00020923,0.0,0 STARLINK-5119,1 53986U 22125Y   23313.54582938  .00020923  00000-0  13281-2 0  9992,2 53986  53.2175  64.7345 0001220  53.8951 306.2154 15.08859881 61103,6917.82,95.436,540.529,538.841,0.0
53986.0,STARLINK-5119,PAYLOAD,2023-11-10 00:13:41,15.08858127,0.0001385,53.2175,62.6523,66.7281,293.3857,0.0010112,0.0001585,0.0,0 STARLINK-5119,1 53986U 22125Y   23314.00950970  .00015850  00000-0  10112-2 0  9992,2 53986  53.2175  62.6523 0001385  66.7281 293.3857 15.08858127 61253,6917.825,95.436,540.648,538.732,0.0
53986.0,STARLINK-5119,PAYLOAD,2023-11-10 11:21:23,15.08835562,0.0001083,53.2171,60.5723,84.4479,275.6637,0.00012378,1.682e-05,0.0,0 STARLINK-5119,1 53986U 22125Y   23314.47319253  .00001682  00000-0  12378-3 0  9991,2 53986  53.2171  60.5723 0001083  84.4479 275.6637 15.08835562 61324,6917.894,95.438,540.508,539.01,0.0
53986.0,STARLINK-5119,PAYLOAD,2023-11-10 14:32:10,15.08842438,0.0001225,53.217,59.9781,95.0114,265.1018,0.00044897,6.865e-05,0.0,0 STARLINK-5119,1 53986U 22125Y   23314.60567199  .00006865  00000-0  44897-3 0  9999,2 53986  53.2170  59.9781 0001225  95.0114 265.1018 15.08842438 61261,6917.873,95.437,540.585,538.89,0.0
53986.0,STARLINK-5119,PAYLOAD,2023-11-11 14:22:57,15.08855739,0.0001238,53.2169,55.5184,85.38,274.7333,0.00084251,0.00013152,0.0,0 STARLINK-5119,1 53986U 22125Y   23315.59927252  .00013152  00000-0  84251-3 0  9993,2 53986  53.2169  55.5184 0001238  85.3800 274.7333 15.08855739 61417,6917.832,95.437,540.554,538.841,0.0
53986.0,STARLINK-5119,PAYLOAD,2023-11-11 23:55:15,15.08850495,0.0001336,53.218,53.7329,92.3527,267.7618,0.00049712,7.635e-05,0.0,0 STARLINK-5119,1 53986U 22125Y   23315.99671159  .00007635  00000-0  49712-3 0  9991,2 53986  53.2180  53.7329 0001336  92.3527 267.7618 15.08850495 61551,6917.848,95.437,540.638,538.789,0.0
53986.0,STARLINK-5119,PAYLOAD,2023-11-12 11:02:57,15.08842024,0.0001508,53.2172,51.6519,90.47,269.6465,6.7009e-05,7.79e-06,0.0,0 STARLINK-5119,1 53986U 22125Y   23316.46039318  .00000779  00000-0  67009-4 0  9991,2 53986  53.2172  51.6519 0001508  90.4700 269.6465 15.08842024 61621,6917.874,95.437,540.782,538.696,0.0
53986.0,STARLINK-5119,PAYLOAD,2023-11-12 12:38:21,15.08843578,0.0001296,53.2178,51.3536,92.4076,267.7065,0.0001961,2.835e-05,0.0,0 STARLINK-5119,1 53986U 22125Y   23316.52663265  .00002835  00000-0  19610-3 0  9991,2 53986  53.2178  51.3536 0001296  92.4076 267.7065 15.08843578 61557,6917.869,95.437,540.631,538.838,0.0
53986.0,STARLINK-5119,PAYLOAD,2023-11-12 15:49:07,15.0885345,0.0001289,53.2172,50.7603,90.455,269.659,0.00046934,7.192e-05,0.0,0 STARLINK-5119,1 53986U 22125Y   23316.65911042  .00007192  00000-0  46934-3 0  9994,2 53986  53.2172  50.7603 0001289  90.4550 269.6590 15.08853450 61651,6917.839,95.437,540.596,538.813,0.0
53986.0,STARLINK-5119,PAYLOAD,2023-11-13 12:29:07,15.08856472,0.000151,53.2191,46.8961,78.4302,281.6859,0.00037298,5.656e-05,0.0,0 STARLINK-5119,1 53986U 22125Y   23317.52022688  .00005656  00000-0  37298-3 0  9996,2 53986  53.2191  46.8961 0001510  78.4302 281.6859 15.08856472 61786,6917.83,95.437,540.74,538.65,0.0
53986.0,STARLINK-5119,PAYLOAD,2023-11-14 12:19:55,15.08837285,0.0001612,53.2185,42.4348,91.8453,268.2724,-2.6167e-05,-7.04e-06,0.0,0 STARLINK-5119,1 53986U 22125Y   23318.51383447 -.00000704  00000-0 -26167-4 0  9994,2 53986  53.2185  42.4348 0001612  91.8453 268.2724 15.08837285 61939,6917.889,95.438,540.869,538.639,0.0
53986.0,STARLINK-5119,PAYLOAD,2023-11-15 12:10:42,15.08849208,0.0001603,53.2177,37.9732,93.5376,266.5799,0.00017008,2.421e-05,0.0,0 STARLINK-5119,1 53986U 22125Y   23319.50743217  .00002421  00000-0  17008-3 0  9998,2 53986  53.2177  37.9732 0001603  93.5376 266.5799 15.08849208 62009,6917.852,95.437,540.826,538.608,0.0
53986.0,STARLINK-5119,PAYLOAD,2023-11-16 08:50:43,15.08837385,0.0001515,53.2183,34.1078,98.9452,261.1712,0.0001089,1.445e-05,0.0,0 STARLINK-5119,1 53986U 22125Y   23320.36855868  .00001445  00000-0  10890-3 0  9997,2 53986  53.2183  34.1078 0001515  98.9452 261.1712 15.08837385 62216,6917.888,95.438,540.801,538.705,0.0
53986.0,STARLINK-5119,PAYLOAD,2023-11-16 21:33:48,15.08840159,0.0001427,53.2186,31.7301,90.0413,270.0743,9.9777e-05,1.3e-05,0.0,0 STARLINK-5119,1 53986U 22125Y   23320.89847788  .00001300  00000-0  99777-4 0  9999,2 53986  53.2186  31.7301 0001427  90.0413 270.0743 15.08840159 62219,6917.88,95.438,540.732,538.758,0.0
53986.0,STARLINK-5119,PAYLOAD,2023-11-17 11:52:16,15.08843474,0.000145,53.2182,29.0552,97.2728,262.8429,7.5438e-05,9.13e-06,0.0,0 STARLINK-5119,1 53986U 22125Y   23321.49463549  .00000913  00000-0  75438-4 0  9992,2 53986  53.2182  29.0552 0001450  97.2728 262.8429 15.08843474 62388,6917.87,95.437,540.738,538.732,0.0
53986.0,STARLINK-5119,PAYLOAD,2023-11-17 13:27:39,15.08844814,0.0001479,53.2187,28.7577,99.0416,261.0743,0.0001035,1.36e-05,0.0,0 STARLINK-5119,1 53986U 22125Y   23321.56087523  .00001360  00000-0  10350-3 0  9992,2 53986  53.2187  28.7577 0001479  99.0416 261.0743 15.08844814 62313,6917.866,95.437,540.754,538.708,0.0
53986.0,STARLINK-5119,PAYLOAD,2023-11-17 21:24:35,15.08843045,0.000157,53.2189,27.2704,111.9195,248.1964,3.2149e-05,2.24e-06,0.0,0 STARLINK-5119,1 53986U 22125Y   23321.89207581  .00000224  00000-0  32149-4 0  9995,2 53986  53.2189  27.2704 0001570 111.9195 248.1964 15.08843045 62362,6917.871,95.437,540.822,538.65,0.0
53986.0,STARLINK-5119,PAYLOAD,2023-11-18 11:43:03,15.08837729,0.0001413,53.2191,24.5946,91.5042,268.6112,7.4421e-05,8.97e-06,0.0,0 STARLINK-5119,1 53986U 22125Y   23322.48823975  .00000897  00000-0  74421-4 0  9997,2 53986  53.2191  24.5946 0001413  91.5042 268.6112 15.08837729 62536,6917.887,95.438,540.73,538.775,0.0
53986.0,STARLINK-5119,PAYLOAD,2023-11-19 11:33:50,15.08844242,0.0001403,53.2193,20.1339,87.6538,272.4615,7.9804e-05,9.83e-06,0.0,0 STARLINK-5119,1 53986U 22125Y   23323.48183951  .00000983  00000-0  79804-4 0  9997,2 53986  53.2193  20.1339 0001403  87.6538 272.4615 15.08844242 62608,6917.867,95.437,540.703,538.762,0.0
53986.0,STARLINK-5119,PAYLOAD,2023-11-19 21:06:09,15.08842964,0.0001433,53.2194,18.3498,86.7528,273.3628,6.7606e-05,7.88e-06,0.0,0 STARLINK-5119,1 53986U 22125Y   23323.87927934  .00000788  00000-0  67606-4 0  9997,2 53986  53.2194  18.3498 0001433  86.7528 273.3628 15.08842964 62665,6917.871,95.437,540.728,538.745,0.0
53986.0,STARLINK-5119,PAYLOAD,2023-11-20 03:27:42,15.08840641,0.0001421,53.2189,17.1602,87.5344,272.5811,0.00010404,1.368e-05,0.0,0 STARLINK-5119,1 53986U 22125Y   23324.14423983  .00001368  00000-0  10404-3 0  9991,2 53986  53.2189  17.1602 0001421  87.5344 272.5811 15.08840641 62783,6917.878,95.438,540.726,538.76,0.0
53986.0,STARLINK-5119,PAYLOAD,2023-11-20 09:49:13,15.08857224,6.42e-05,53.2188,15.9701,56.9964,303.109,0.00024734,3.653e-05,0.0,0 STARLINK-5119,1 53986U 22125Y   23324.40918492  .00003653  00000-0  24734-3 0  9994,2 53986  53.2188  15.9701 0000642  56.9964 303.1090 15.08857224 62820,6917.828,95.436,540.137,539.249,0.0
53986.0,STARLINK-5119,PAYLOAD,2023-11-20 11:24:29,15.08954394,0.0001398,53.2189,15.6733,81.3535,278.7616,0.0010691,0.00016821,0.0,0 STARLINK-5119,1 53986U 22125Y   23324.47534315  .00016821  00000-0  10691-2 0  9996,2 53986  53.2189  15.6733 0001398  81.3535 278.7616 15.08954394 62757,6917.531,95.43,540.363,538.429,0.0
53986.0,STARLINK-5119,PAYLOAD,2023-11-20 19:21:20,15.09003004,0.0001558,53.2194,14.1867,67.2187,292.8969,0.0013782,0.00021812,0.0,0 STARLINK-5119,1 53986U 22125Y   23324.80648168  .00021812  00000-0  13782-2 0  9995,2 53986  53.2194  14.1867 0001558  67.2187 292.8969 15.09003004 62885,6917.382,95.427,540.325,538.169,0.0
53986.0,STARLINK-5119,PAYLOAD,2023-11-20 20:56:48,15.08924012,0.0001783,53.2199,13.8899,75.1788,284.9402,0.00067536,0.00010501,0.0,0 STARLINK-5119,1 53986U 22125Y   23324.87278189  .00010501  00000-0  67536-3 0  9994,2 53986  53.2199  13.8899 0001783  75.1788 284.9402 15.08924012 62813,6917.624,95.432,540.722,538.255,0.0
53986.0,STARLINK-5119,PAYLOAD,2023-11-21 09:40:08,15.08628003,0.0001813,53.2188,11.5112,65.7498,294.3684,-0.0033887,-0.00053509,0.0,0 STARLINK-5119,1 53986U 22125Y   23325.40287550 -.00053509  00000-0 -33887-2 0  9994,2 53986  53.2188  11.5112 0001813  65.7498 294.3684 15.08628003 62976,6918.528,95.451,541.648,539.139,0.0
53986.0,STARLINK-5119,PAYLOAD,2023-11-22 03:09:28,15.0864207,0.0001048,53.22,8.2399,55.6195,304.4896,-0.0022674,-0.00035998,0.0,0 STARLINK-5119,1 53986U 22125Y   23326.13157807 -.00035998  00000-0 -22674-2 0  9990,2 53986  53.2200   8.2399 0001048  55.6195 304.4896 15.08642070 63084,6918.485,95.45,541.076,539.625,0.0
53986.0,STARLINK-5119,PAYLOAD,2023-11-22 09:30:54,15.08837937,0.0001488,53.219,7.0491,88.9981,271.1182,0.00066481,0.00010308,0.0,0 STARLINK-5119,1 53986U 22125Y   23326.39646469  .00010308  00000-0  66481-3 0  9996,2 53986  53.2190   7.0491 0001488  88.9981 271.1182 15.08837937 63123,6917.887,95.438,540.781,538.722,0.0
53986.0,STARLINK-5119,PAYLOAD,2023-11-23 03:00:07,15.08866874,0.000168,53.2187,3.7775,72.8344,287.2832,0.0012265,0.000193,0.0,0 STARLINK-5119,1 53986U 22125Y   23327.12508592  .00019300  00000-0  12265-2 0  9993,2 53986  53.2187   3.7775 0001680  72.8344 287.2832 15.08866874 63230,6917.798,95.436,540.825,538.501,0.0
53986.0,STARLINK-5119,PAYLOAD,2023-11-23 09:21:43,15.08866184,0.0001449,53.219,2.5901,61.8398,298.274,0.0039391,0.00063009,0.0,0 STARLINK-5119,1 53986U 22125Y   23327.39008193  .00063009  00000-0  39391-2 0  9998,2 53986  53.2190   2.5901 0001449  61.8398 298.2740 15.08866184 63270,6917.8,95.436,540.668,538.663,0.0
